NORAD_CAT_ID,OBJECT_NAME,OBJECT_TYPE,EPOCH,MEAN_MOTION,ECCENTRICITY,INCLINATION,RA_OF_ASC_NODE,ARG_OF_PERICENTER,MEAN_ANOMALY,BSTAR,MEAN_MOTION_DOT,MEAN_MOTION_DDOT,TLE_LINE0,TLE_LINE1,TLE_LINE2,SEMIMAJOR_AXIS,PERIOD,APOGEE,PERIGEE,DECAYED
53730.0,STARLINK-4641,PAYLOAD,2024-08-16 10:22:30,15.08840681,0.0001463,53.2161,294.1446,90.5874,269.5285,7.1831e-05,8.55e-06,0.0,0 STARLINK-4641,1 53730U 22107AG  24229.43230050  .00000855  00000-0  71831-4 0  9998,2 53730  53.2161 294.1446 0001463  90.5874 269.5285 15.08840681107865,6917.878,95.438,540.755,538.731,0.0
53730.0,STARLINK-4641,PAYLOAD,2024-08-17 08:37:53,15.08856211,0.0001831,53.2168,289.9785,79.6066,280.5133,-0.00052978,-8.714e-05,0.0,0 STARLINK-4641,1 53730U 22107AG  24230.35965274 -.00008714  00000-0 -52978-3 0  9998,2 53730  53.2168 289.9785 0001831  79.6066 280.5133 15.08856211108008,6917.831,95.437,540.962,538.429,0.0
53730.0,STARLINK-4641,PAYLOAD,2024-08-17 13:24:04,15.08841285,0.0001602,53.2163,289.0858,81.865,278.2524,6.1751e-05,6.95e-06,0.0,0 STARLINK-4641,1 53730U 22107AG  24230.55838311  .00000695  00000-0  61751-4 0  9999,2 53730  53.2163 289.0858 0001602  81.8650 278.2524 15.08841285108637,6917.876,95.437,540.85,538.633,0.0
53730.0,STARLINK-4641,PAYLOAD,2024-08-18 13:14:51,15.0884633,0.0001568,53.2153,284.6238,97.9336,262.1834,0.00022361,3.273e-05,0.0,0 STARLINK-4641,1 53730U 22107AG  24231.55198027  .00003273  00000-0  22361-3 0  9991,2 53730  53.2153 284.6238 0001568  97.9336 262.1834 15.08846330108787,6917.861,95.437,540.811,538.641,0.0
53730.0,STARLINK-4641,PAYLOAD,2024-08-19 03:33:19,15.08841781,0.0001615,53.2149,281.947,99.997,260.1205,0.00011887,1.604e-05,0.0,0 STARLINK-4641,1 53730U 22107AG  24232.14814207  .00001604  00000-0  11887-3 0  9999,2 53730  53.2149 281.9470 0001615  99.9970 260.1205 15.08841781108278,6917.875,95.437,540.857,538.623,0.0
53730.0,STARLINK-4641,PAYLOAD,2024-08-19 09:54:51,15.08843388,0.000155,53.2152,280.757,95.2322,264.8847,0.00011252,1.503e-05,0.0,0 STARLINK-4641,1 53730U 22107AG  24232.41309973  .00001503  00000-0  11252-3 0  9992,2 53730  53.2152 280.7570 0001550  95.2322 264.8847 15.08843388108917,6917.87,95.437,540.807,538.663,0.0
53730.0,STARLINK-4641,PAYLOAD,2024-08-20 08:10:15,15.08842704,0.0001541,53.2156,276.5946,95.0567,265.0601,9.8925e-06,-1.31e-06,0.0,0 STARLINK-4641,1 53730U 22107AG  24233.34046111 -.00000131  00000-0  98925-5 0  9998,2 53730  53.2156 276.5946 0001541  95.0567 265.0601 15.08842704108451,6917.872,95.437,540.803,538.671,0.0
53730.0,STARLINK-4641,PAYLOAD,2024-08-21 09:36:25,15.08842915,0.0001411,53.216,271.8374,92.2102,267.9052,5.4944e-05,5.87e-06,0.0,0 STARLINK-4641,1 53730U 22107AG  24234.40029796  .00000587  00000-0  54944-4 0  9992,2 53730  53.2160 271.8374 0001411  92.2102 267.9052 15.08842915108612,6917.871,95.437,540.713,538.76,0.0
